IRIDIUM 166             
1 43570U 18061B   25245.56965611  .00000346  00000+0  11632-3 0  9990
2 43570  86.4042 176.9358 0002508  84.6479 275.5003 14.34218313372179
IRIDIUM 158             
1 43571U 18061C   25245.53793884  .00000556  00000+0  19153-3 0  9998
2 43571  86.4039 176.9586 0002112  88.8952 271.2486 14.34215758372136
IRIDIUM 165             
1 43572U 18061D   25245.28424206 -.00000062  00000+0 -29240-4 0  9993
2 43572  86.4045 177.1053 0002225  82.1750 277.9699 14.34217081372123
IRIDIUM 155             
1 43573U 18061E   25245.52526025 -.00000002  00000+0 -78905-5 0  9990
2 43573  86.4041 176.8886 0002174  90.3221 269.8224 14.34217544372125
IRIDIUM 154             
1 43574U 18061F   25245.22717019  .00000592  00000+0  20444-3 0  9998
2 43574  86.4042 177.1318 0002246  83.1776 276.9676 14.34221904372132
IRIDIUM 163             
1 43575U 18061G   25245.55697280 -.00000040  00000+0 -21423-4 0  9991
2 43575  86.4042 176.9189 0001929  86.0203 274.1213 14.34217255372153
IRIDIUM 156             
1 43576U 18061H   25245.32229719 -.00000002  00000+0 -78142-5 0  9994
2 43576  86.4042 177.0238 0002318  90.1873 269.9588 14.34217606372116
IRIDIUM 164             
1 43577U 18061J   25245.51257588 -.00000088  00000+0 -38334-4 0  9993
2 43577  86.4044 176.9801 0002260  80.7239 279.4212 14.34216764372181
